IRIDIUM 171             
1 43929U 19002H   25339.76299655  .00000219  00000+0  71294-4 0  9998
2 43929  86.3977  74.7189 0002181 102.2516 257.8924 14.34218197361236
IRIDIUM 170             
1 43930U 19002J   25339.79704033  .00002367  00000+0  37140-3 0  9991
2 43930  86.6093  74.4190 0002320  89.1863 270.9620 14.72259300370807
IRIDIUM 167             
1 43931U 19002K   25339.96595806  .00000206  00000+0  66633-4 0  9997
2 43931  86.3966  74.3697 0002184 108.8404 251.3029 14.34217202361262
IRIDIUM 181             
1 56726U 23068S   25339.95477506  .00000486  00000+0  13835-3 0  9990
2 56726  86.4508 137.5593 0002614  88.5351 271.6149 14.43315732134567
IRIDIUM 177             
1 56727U 23068T   25339.84679857  .00003092  00000+0  40346-3 0  9995
2 56727  86.1973  60.6034 0002339  85.5186 274.6303 14.80227053137763
IRIDIUM 174             
1 56728U 23068U   25339.78468170  .00002665  00000+0  41867-3 0  9997
2 56728  86.6101  74.5521 0002229  87.2685 272.8787 14.72255655137562
IRIDIUM 178             
1 56729U 23068V   25339.83587267  .00002113  00000+0  27462-3 0  9996
2 56729  86.6536 106.1832 0002171 100.7802 259.3664 14.80237058137762
IRIDIUM 179             
1 56730U 23068W   25339.89808757  .00002939  00000+0  38348-3 0  9995
2 56730  86.6775 114.5593 0002482  94.6999 265.4506 14.80220040137776
